OSCAR 7 (AO-7)          
1 07530U 74089B   26198.48973661 -.00000042  00000+0  25339-4 0  9995
2 07530 101.9906 212.0521 0012650  74.1265  93.8436 12.53698636364314
PHASE 3B (AO-10)        
1 14129U 83058B   26194.10401075 -.00000187  00000+0  00000+0 0  9996
2 14129  25.9345 215.2934 6002223 122.7887 309.2966  2.05872336296023
UOSAT 2 (UO-11)         
1 14781U 84021B   26198.62608420  .00000485  00000+0  54853-4 0  9995
2 14781  97.8078 163.8656 0009254  84.7526 275.4747 14.90851944261661
LUSAT (LO-19)           
1 20442U 90005G   26198.53126659  .00000025  00000+0  25584-4 0  9993
2 20442  98.8847 221.1720 0012598 115.0865 245.1628 14.34131129906747
EYESAT A (AO-27)        
1 22825U 93061C   26198.62642570  .00000029  00000+0  28072-4 0  9999
2 22825  98.6866 266.0266 0008619  19.0842 341.0662 14.30949457711355
ITAMSAT (IO-26)         
1 22826U 93061D   26198.45694640  .00000036  00000+0  30552-4 0  9990
2 22826  98.6813 265.7777 0008790   2.8149 357.3082 14.31377092711640
RADIO ROSTO (RS15)      
1 23439U 94085A   26198.62502686 -.00000033  00000+0  26301-3 0  9999
2 23439  64.8151 253.9910 0157009 358.2613   1.7747 11.27583595299335
JAS-2 (FO-29)           
1 24278U 96046B   26198.40176103 -.00000019  00000+0  16007-4 0  9994
2 24278  98.5218  43.1320 0350252  18.2236 343.1097 13.53275797477251
TECHSAT 1B (GO-32)      
1 25397U 98043D   26198.40930574  .00000005  00000+0  22342-4 0  9999
2 25397  99.0087 191.9327 0002250 111.4345 248.7073 14.24433604455636
ISS (ZARYA)             
1 25544U 98067A   26198.57280181  .00003563  00000+0  72724-4 0  9990
2 25544  51.6316 149.7201 0006795 306.9083  53.1282 15.49033131576463
PCSAT (NO-44)           
1 26931U 01043C   26198.54195191  .00000019  00000+0  38081-4 0  9993
2 26931  67.0496 165.7597 0005892 266.8164  93.2264 14.31965477294796
SAUDISAT 1C (SO-50)     
1 27607U 02058C   26198.56666565  .00000339  00000+0  58139-4 0  9992
2 27607  64.5519  34.9873 0074455 256.8352 102.4439 14.83100826268961
CUTE-1 (CO-55)          
1 27844U 03031E   26198.45437378  .00000130  00000+0  74903-4 0  9999
2 27844  98.6744 206.6332 0010862  96.8604 263.3811 14.24352364195987
CUBESAT XI-IV (CO-57)   
1 27848U 03031J   26198.45804686  .00000106  00000+0  65800-4 0  9992
2 27848  98.6776 206.3252 0010617 113.4163 246.8133 14.23635260195686
MOZHAETS 4 (RS22)       
1 27939U 03042A   26198.63933494  .00000724  00000+0  11961-3 0  9999
2 27939  98.3471  23.8599 0011437 165.5182 282.6803 14.73517513220037
CUBESAT XI-V            
1 28895U 05043F   26197.95849457  .00000631  00000+0  10709-3 0  9999
2 28895  98.3017 354.2118 0015311 110.0551 250.2305 14.72704810106132
CUTE-1.7+APD II (CO-65) 
1 32785U 08021C   26198.60706207  .00002064  00000+0  13220-3 0  9992
2 32785  97.8298 180.6677 0006864 289.6510  70.3978 15.09712945989788
SEEDS II (CO-66)        
1 32791U 08021J   26198.41728183  .00010001  00000+0  30928-3 0  9999
2 32791  97.7528 197.7827 0003325 151.8458 208.2964 15.33712210991924
YUBILEINY (RS30)        
1 32953U 08025A   26198.68013281 -.00000070  00000+0 -57023-3 0  9990
2 32953  82.5065 336.4708 0018676 243.1797 116.7373 12.43180339823489
KKS-1 (KISEKI)          
1 33499U 09002H   26198.61564162  .00000555  00000+0  74862-4 0  9991
2 33499  98.1173 121.5400 0007624 180.8586 179.2615 14.83192219940708
SWISSCUBE               
1 35932U 09051B   26198.47700655  .00000432  00000+0  94955-4 0  9991
2 35932  98.4004 106.8899 0007951 112.9485 247.2556 14.62533018893589
BEESAT-1                
1 35933U 09051C   26197.68087813  .00000383  00000+0  86615-4 0  9997
2 35933  98.3932 105.6536 0006186 125.9975 234.1800 14.61763234893492
ITUPSAT1                
1 35935U 09051E   26198.17721015  .00000337  00000+0  79459-4 0  9990
2 35935  98.4015 105.3171 0008204 137.6090 222.5745 14.60480346893117
XIWANG-1 (HOPE-1)       
1 36122U 09072B   26198.56752902 -.00000560  00000+0 -13502-2 0  9999
2 36122 100.4042 151.9169 0007588 159.5399 200.6019 13.16437653797008
O/OREOS (USA 219)       
1 37224U 10062C   26198.46517808  .00000971  00000+0  97290-4 0  9999
2 37224  71.9699  11.7456 0014112   0.6870 359.4317 14.93856344121165
JUGNU                   
1 37839U 11058B   26198.52482884  .00000335  00000+0  35863-4 0  9991
2 37839  19.9597 124.1085 0018626  52.1073 113.9321 14.13783779763325
SRMSAT                  
1 37841U 11058D   26198.49217914  .00000324  00000+0  31755-4 0  9994
2 37841  19.9706 236.0426 0011702 176.3977 328.2795 14.11581368762101
STRAND-1                
1 39090U 13009E   26198.48055263  .00000107  00000+0  50178-4 0  9995
2 39090  98.3936  17.9715 0009515 134.8937 225.3024 14.37179617701413
ZACUBE-1 (TSHEPISOSAT)  
1 39417U 13066B   26198.46736880  .00001193  00000+0  95678-4 0  9990
2 39417  97.8006 160.9527 0044097 147.9518 212.4401 15.01334450685273
GOMX-1                  
1 39430U 13066Q   26198.62241387  .00000608  00000+0  98269-4 0  9995
2 39430  97.6461  37.1641 0128022 340.3927  19.2381 14.69545680674389
