OBJECT_NAME,OBJECT_ID,EPOCH,MEAN_MOTION,ECCENTRICITY,INCLINATION,RA_OF_ASC_NODE,ARG_OF_PERICENTER,MEAN_ANOMALY,EPHEMERIS_TYPE,CLASSIFICATION_TYPE,NORAD_CAT_ID,ELEMENT_SET_NO,REV_AT_EPOCH,BSTAR,MEAN_MOTION_DOT,MEAN_MOTION_DDOT
OSCAR 7 (AO-7),1974-089B,2026-07-17T11:45:13.243104,12.53698636,.00126504,101.9906,212.0521,74.1265,93.8436,0,U,7530,999,36431,.25339321E-4,-.42E-6,0
PHASE 3B (AO-10),1983-058B,2026-07-13T02:29:46.528800,2.05872336,.60022234,25.9345,215.2934,122.7887,309.2966,0,U,14129,999,29602,0,-.187E-5,0
UOSAT 2 (UO-11),1984-021B,2026-07-17T15:01:33.674880,14.90851944,.0009254,97.8078,163.8656,84.7526,275.4747,0,U,14781,999,26166,.54852912E-4,.485E-5,0
LUSAT (LO-19),1990-005G,2026-07-17T12:45:01.433376,14.34131129,.00125985,98.8847,221.1720,115.0865,245.1628,0,U,20442,999,90674,.25584032E-4,.25E-6,0
EYESAT A (AO-27),1993-061C,2026-07-17T15:02:03.180480,14.30949457,.00086194,98.6866,266.0266,19.0842,341.0662,0,U,22825,999,71135,.28071771E-4,.29E-6,0
ITAMSAT (IO-26),1993-061D,2026-07-17T10:58:00.168960,14.31377092,.00087903,98.6813,265.7777,2.8149,357.3082,0,U,22826,999,71164,.30552326E-4,.36E-6,0
RADIO ROSTO (RS15),1994-085A,2026-07-17T15:00:02.320704,11.27583595,.01570091,64.8151,253.9910,358.2613,1.7747,0,U,23439,999,29933,.26300617E-3,-.33E-6,0
JAS-2 (FO-29),1996-046B,2026-07-17T09:38:32.152992,13.53275797,.03502524,98.5218,43.1320,18.2236,343.1097,0,U,24278,999,47725,.16006714E-4,-.19E-6,0
TECHSAT 1B (GO-32),1998-043D,2026-07-17T09:49:24.015936,14.24433604,.00022502,99.0087,191.9327,111.4345,248.7073,0,U,25397,999,45563,.22342299E-4,.5E-7,0
ISS (ZARYA),1998-067A,2026-07-17T13:44:50.076384,15.49033131,.0006795,51.6316,149.7201,306.9083,53.1282,0,U,25544,999,57646,.72723697E-4,.3563E-4,0
PCSAT (NO-44),2001-043C,2026-07-17T13:00:24.645024,14.31965477,.00058922,67.0496,165.7597,266.8164,93.2264,0,U,26931,999,29479,.38081002E-4,.19E-6,0
SAUDISAT 1C (SO-50),2002-058C,2026-07-17T13:35:59.912160,14.83100826,.00744554,64.5519,34.9873,256.8352,102.4439,0,U,27607,999,26896,.58139126E-4,.339E-5,0
CUTE-1 (CO-55),2003-031E,2026-07-17T10:54:17.894592,14.24352364,.00108628,98.6744,206.6332,96.8604,263.3811,0,U,27844,999,19598,.74903012E-4,.13E-5,0
CUBESAT XI-IV (CO-57),2003-031J,2026-07-17T10:59:35.248704,14.23635260,.00106177,98.6776,206.3252,113.4163,246.8133,0,U,27848,999,19568,.65800399E-4,.106E-5,0
MOZHAETS 4 (RS22),2003-042A,2026-07-17T15:20:38.538816,14.73517513,.0011437,98.3471,23.8599,165.5182,282.6803,0,U,27939,999,22003,.1196115E-3,.724E-5,0
CUBESAT XI-V,2005-043F,2026-07-16T23:00:13.930848,14.72704810,.00153115,98.3017,354.2118,110.0551,250.2305,0,U,28895,999,10613,.10708966E-3,.631E-5,0
CUTE-1.7+APD II (CO-65),2008-021C,2026-07-17T14:34:10.162848,15.09712945,.00068645,97.8298,180.6677,289.6510,70.3978,0,U,32785,999,98978,.13219501E-3,.2064E-4,0
SEEDS II (CO-66),2008-021J,2026-07-17T10:00:53.150112,15.33712210,.0003325,97.7528,197.7827,151.8458,208.2964,0,U,32791,999,99192,.30927547E-3,.10001E-3,0
YUBILEINY (RS30),2008-025A,2026-07-17T16:19:23.474784,12.43180339,.00186765,82.5065,336.4708,243.1797,116.7373,0,U,32953,999,82348,-.57022543E-3,-.7E-6,0
KKS-1 (KISEKI),2009-002H,2026-07-17T14:46:31.435968,14.83192219,.00076244,98.1173,121.5400,180.8586,179.2615,0,U,33499,999,94070,.74862462E-4,.555E-5,0
SWISSCUBE,2009-051B,2026-07-17T11:26:53.365920,14.62533018,.00079515,98.4004,106.8899,112.9485,247.2556,0,U,35932,999,89358,.9495523E-4,.432E-5,0
BEESAT-1,2009-051C,2026-07-16T16:20:27.870432,14.61763234,.00061862,98.3932,105.6536,125.9975,234.1800,0,U,35933,999,89349,.86615002E-4,.383E-5,0
ITUPSAT1,2009-051E,2026-07-17T04:15:10.956960,14.60480346,.00082048,98.4015,105.3171,137.6090,222.5745,0,U,35935,999,89311,.79458509E-4,.337E-5,0
XIWANG-1 (HOPE-1),2009-072B,2026-07-17T13:37:14.507328,13.16437653,.00075889,100.4042,151.9169,159.5399,200.6019,0,U,36122,999,79700,-.13502394E-2,-.56E-5,0
O/OREOS (USA 219),2010-062C,2026-07-17T11:09:51.386112,14.93856344,.00141124,71.9699,11.7456,0.6870,359.4317,0,U,37224,999,12116,.97290004E-4,.971E-5,0
JUGNU,2011-058B,2026-07-17T12:35:45.211776,14.13783779,.00186263,19.9597,124.1085,52.1073,113.9321,0,U,37839,999,76332,.3586318E-4,.335E-5,0
SRMSAT,2011-058D,2026-07-17T11:48:44.277696,14.11581368,.0011702,19.9706,236.0426,176.3977,328.2795,0,U,37841,999,76210,.31755126E-4,.324E-5,0
STRAND-1,2013-009E,2026-07-17T11:31:59.747232,14.37179617,.00095159,98.3936,17.9715,134.8937,225.3024,0,U,39090,999,70141,.50177866E-4,.107E-5,0
ZACUBE-1 (TSHEPISOSAT),2013-066B,2026-07-17T11:13:00.664320,15.01334450,.0044097,97.8006,160.9527,147.9518,212.4401,0,U,39417,999,68527,.95678276E-4,.1193E-4,0
GOMX-1,2013-066Q,2026-07-17T14:56:16.558368,14.69545680,.01280228,97.6461,37.1641,340.3927,19.2381,0,U,39430,999,67438,.98269135E-4,.608E-5,0
